BEIJING 1               
1 28890U 05043A   15226.85027102  .00000117  00000-0  32750-4 0  9990
2 28890  97.8185  46.9544 0016530 109.6579 250.6415 14.61020864522241
HJ-1A                   
1 33320U 08041A   15226.74931302  .00000506  00000-0  80180-4 0  9991
2 33320  98.0263 288.3188 0027289  33.7517 326.5421 14.76269333373553
HJ-1B                   
1 33321U 08041B   15226.71551739  .00000571  00000-0  89148-4 0  9996
2 33321  98.0294 289.0753 0036221  48.9217 311.5101 14.76307193373539
YAOGAN 4                
1 33446U 08061A   15226.70393227  .00000169  00000-0  31421-4 0  9995
2 33446  97.6418 252.0602 0016108 332.3530  27.6819 14.75960495360809
DEIMOS-1                
1 35681U 09041A   15226.72358616  .00000195  00000-0  39470-4 0  9993
2 35681  98.0218 120.4216 0001072   9.7108 350.4122 14.71415847324248
UK-DMC 2                
1 35683U 09041C   15226.72849128  .00000153  00000-0  32983-4 0  9994
2 35683  97.9234 116.3247 0001495  83.4720 276.6664 14.70745287324155
RISAT 1                 
1 38248U 12017A   15226.75613259  .00001041  00000-0  69893-4 0  9995
2 38248  97.5630 232.8342 0004655 164.3581 314.2853 15.08976662181836
DMC3-FM1                
1 40715U 15032A   15226.84401915  .00000139  00000-0  29515-4 0  9995
2 40715  98.0480 115.6657 0019869 127.8811 232.4199 14.72978957  5172
DMC3-FM2                
1 40716U 15032B   15226.75279105  .00000158  00000-0  31445-4 0  9996
2 40716  98.0469 115.6263 0017977 135.8314 224.4332 14.74407870  5160
DMC3-FM3                
1 40717U 15032C   15226.76159338  .00000145  00000-0  29965-4 0  9993
2 40717  98.0475 115.6172 0019885 128.5496 231.7496 14.73708476  5164
